IRIDIUM 33              
1 24946U 97051C   26066.63412808  .00000446  00000+0  14939-3 0  9991
2 24946  86.3879  32.5606 0006094 308.3689  51.6959 14.35100135490524
IRIDIUM 33 DEB          
1 33773U 97051L   26066.36304627  .00001665  00000+0  48678-3 0  9999
2 33773  86.4034  24.7076 0009159 227.1564 132.8868 14.43474175895689
IRIDIUM 33 DEB          
1 33775U 97051N   26066.61293118  .00002204  00000+0  66940-3 0  9993
2 33775  86.3677  13.3057 0010782 240.2884 242.9543 14.41750358893635
IRIDIUM 33 DEB          
1 33776U 97051P   26066.48240365  .00001319  00000+0  42609-3 0  9997
2 33776  86.4023  45.1542 0012331 282.6517 193.8418 14.38402208893009
IRIDIUM 33 DEB          
1 33777U 97051Q   26066.50496899  .00004469  00000+0  10043-2 0  9991
2 33777  86.3834 358.3120 0006527 354.6214   5.4923 14.56313923897675
IRIDIUM 33 DEB          
1 33850U 97051T   26066.57471360  .00001749  00000+0  52218-3 0  9995
2 33850  86.3468 353.7026 0008917 250.2005 231.6929 14.42477121893758
IRIDIUM 33 DEB          
1 33853U 97051W   26066.65857008  .00002996  00000+0  16890-2 0  9994
2 33853  85.9995 312.5774 0210079 336.4686  78.9480 13.99576430865331
IRIDIUM 33 DEB          
1 33860U 97051AD  26066.26020025  .00012570  00000+0  21366-2 0  9993
2 33860  86.3871 349.7876 0011535  54.3483  97.9474 14.69009538899620
IRIDIUM 33 DEB          
1 33862U 97051AF  26066.31139207  .00017934  00000+0  28081-2 0  9994
2 33862  86.4132   0.1742 0050655 131.2492 346.4602 14.71764888900665
IRIDIUM 33 DEB          
1 33866U 97051AK  26066.21443995  .00004090  00000+0  16100-2 0  9997
2 33866  86.2994  57.2649 0110666 250.6620 123.8829 14.25724109880149
IRIDIUM 33 DEB          
1 33870U 97051AP  26066.32638797  .00004265  00000+0  11805-2 0  9991
2 33870  86.3779  21.9760 0018156 262.5439 219.2943 14.46386387893594
IRIDIUM 33 DEB          
1 33881U 97051BA  26066.50576869  .00024288  00000+0  50640-2 0  9991
2 33881  86.3825  69.8171 0052430 249.6063 233.4470 14.58961185887355
IRIDIUM 33 DEB          
1 33884U 97051BD  26066.18967514  .00017463  00000+0  22887-2 0  9998
2 33884  86.3714 331.6369 0013551  25.7450  97.0143 14.80189917900951
IRIDIUM 33 DEB          
1 33886U 97051BF  26066.62690950  .00000904  00000+0  30331-3 0  9992
2 33886  86.3843  31.4734 0013201 337.7001 197.1594 14.36166037892701
IRIDIUM 33 DEB          
1 33887U 97051BG  26066.49055706  .00000611  00000+0  19840-3 0  9999
2 33887  86.3078 326.8936 0005370 343.7835 137.6795 14.37322255893820
IRIDIUM 33 DEB          
1 33953U 97051BN  26066.33249664  .00007877  00000+0  17687-2 0  9991
2 33953  86.3887  17.0282 0015881 164.4385 318.8859 14.56366985895343
