[{"OBJECT_NAME":"IRIDIUM 33","OBJECT_ID":"1997-051C","EPOCH":"2026-03-07T15:13:08.666112","MEAN_MOTION":14.35100135,"ECCENTRICITY":0.00060941,"INCLINATION":86.3879,"RA_OF_ASC_NODE":32.5606,"ARG_OF_PERICENTER":308.3689,"MEAN_ANOMALY":51.6959,"EPHEMERIS_TYPE":0,"CLASSIFICATION_TYPE":"U","NORAD_CAT_ID":24946,"ELEMENT_SET_NO":999,"REV_AT_EPOCH":49052,"BSTAR":0.00014939026,"MEAN_MOTION_DOT":4.46e-6,"MEAN_MOTION_DDOT":0},{"OBJECT_NAME":"IRIDIUM 33 DEB","OBJECT_ID":"1997-051L","EPOCH":"2026-03-07T08:42:47.197728","MEAN_MOTION":14.43474175,"ECCENTRICITY":0.00091593,"INCLINATION":86.4034,"RA_OF_ASC_NODE":24.7076,"ARG_OF_PERICENTER":227.1564,"MEAN_ANOMALY":132.8868,"EPHEMERIS_TYPE":0,"CLASSIFICATION_TYPE":"U","NORAD_CAT_ID":33773,"ELEMENT_SET_NO":999,"REV_AT_EPOCH":89568,"BSTAR":0.00048678226,"MEAN_MOTION_DOT":1.665e-5,"MEAN_MOTION_DDOT":0},{"OBJECT_NAME":"IRIDIUM 33 DEB","OBJECT_ID":"1997-051N","EPOCH":"2026-03-07T14:42:37.253952","MEAN_MOTION":14.41750358,"ECCENTRICITY":0.00107827,"INCLINATION":86.3677,"RA_OF_ASC_NODE":13.3057,"ARG_OF_PERICENTER":240.2884,"MEAN_ANOMALY":242.9543,"EPHEMERIS_TYPE":0,"CLASSIFICATION_TYPE":"U","NORAD_CAT_ID":33775,"ELEMENT_SET_NO":999,"REV_AT_EPOCH":89363,"BSTAR":0.00066939504,"MEAN_MOTION_DOT":2.204e-5,"MEAN_MOTION_DDOT":0},{"OBJECT_NAME":"IRIDIUM 33 DEB","OBJECT_ID":"1997-051P","EPOCH":"2026-03-07T11:34:39.675360","MEAN_MOTION":14.38402208,"ECCENTRICITY":0.00123315,"INCLINATION":86.4023,"RA_OF_ASC_NODE":45.1542,"ARG_OF_PERICENTER":282.6517,"MEAN_ANOMALY":193.8418,"EPHEMERIS_TYPE":0,"CLASSIFICATION_TYPE":"U","NORAD_CAT_ID":33776,"ELEMENT_SET_NO":999,"REV_AT_EPOCH":89300,"BSTAR":0.00042608689,"MEAN_MOTION_DOT":1.319e-5,"MEAN_MOTION_DDOT":0},{"OBJECT_NAME":"IRIDIUM 33 DEB","OBJECT_ID":"1997-051Q","EPOCH":"2026-03-07T12:07:09.320736","MEAN_MOTION":14.56313923,"ECCENTRICITY":0.00065271,"INCLINATION":86.3834,"RA_OF_ASC_NODE":358.312,"ARG_OF_PERICENTER":354.6214,"MEAN_ANOMALY":5.4923,"EPHEMERIS_TYPE":0,"CLASSIFICATION_TYPE":"U","NORAD_CAT_ID":33777,"ELEMENT_SET_NO":999,"REV_AT_EPOCH":89767,"BSTAR":0.0010043309,"MEAN_MOTION_DOT":4.469e-5,"MEAN_MOTION_DDOT":0},{"OBJECT_NAME":"IRIDIUM 33 DEB","OBJECT_ID":"1997-051T","EPOCH":"2026-03-07T13:47:35.255040","MEAN_MOTION":14.42477121,"ECCENTRICITY":0.00089173,"INCLINATION":86.3468,"RA_OF_ASC_NODE":353.7026,"ARG_OF_PERICENTER":250.2005,"MEAN_ANOMALY":231.6929,"EPHEMERIS_TYPE":0,"CLASSIFICATION_TYPE":"U","NORAD_CAT_ID":33850,"ELEMENT_SET_NO":999,"REV_AT_EPOCH":89375,"BSTAR":0.00052218357,"MEAN_MOTION_DOT":1.749e-5,"MEAN_MOTION_DDOT":0},{"OBJECT_NAME":"IRIDIUM 33 DEB","OBJECT_ID":"1997-051W","EPOCH":"2026-03-07T15:48:20.454912","MEAN_MOTION":13.9957643,"ECCENTRICITY":0.02100797,"INCLINATION":85.9995,"RA_OF_ASC_NODE":312.5774,"ARG_OF_PERICENTER":336.4686,"MEAN_ANOMALY":78.948,"EPHEMERIS_TYPE":0,"CLASSIFICATION_TYPE":"U","NORAD_CAT_ID":33853,"ELEMENT_SET_NO":999,"REV_AT_EPOCH":86533,"BSTAR":0.001688968,"MEAN_MOTION_DOT":2.996e-5,"MEAN_MOTION_DDOT":0},{"OBJECT_NAME":"IRIDIUM 33 DEB","OBJECT_ID":"1997-051AD","EPOCH":"2026-03-07T06:14:41.301600","MEAN_MOTION":14.69009538,"ECCENTRICITY":0.0011535,"INCLINATION":86.3871,"RA_OF_ASC_NODE":349.7876,"ARG_OF_PERICENTER":54.3483,"MEAN_ANOMALY":97.9474,"EPHEMERIS_TYPE":0,"CLASSIFICATION_TYPE":"U","NORAD_CAT_ID":33860,"ELEMENT_SET_NO":999,"REV_AT_EPOCH":89962,"BSTAR":0.0021366,"MEAN_MOTION_DOT":0.0001257,"MEAN_MOTION_DDOT":0},{"OBJECT_NAME":"IRIDIUM 33 DEB","OBJECT_ID":"1997-051AF","EPOCH":"2026-03-07T07:28:24.274848","MEAN_MOTION":14.71764888,"ECCENTRICITY":0.0050655,"INCLINATION":86.4132,"RA_OF_ASC_NODE":0.1742,"ARG_OF_PERICENTER":131.2492,"MEAN_ANOMALY":346.4602,"EPHEMERIS_TYPE":0,"CLASSIFICATION_TYPE":"U","NORAD_CAT_ID":33862,"ELEMENT_SET_NO":999,"REV_AT_EPOCH":90066,"BSTAR":0.0028081,"MEAN_MOTION_DOT":0.00017934,"MEAN_MOTION_DDOT":0},{"OBJECT_NAME":"IRIDIUM 33 DEB","OBJECT_ID":"1997-051AK","EPOCH":"2026-03-07T05:08:47.611680","MEAN_MOTION":14.25724109,"ECCENTRICITY":0.0110666,"INCLINATION":86.2994,"RA_OF_ASC_NODE":57.2649,"ARG_OF_PERICENTER":250.662,"MEAN_ANOMALY":123.8829,"EPHEMERIS_TYPE":0,"CLASSIFICATION_TYPE":"U","NORAD_CAT_ID":33866,"ELEMENT_SET_NO":999,"REV_AT_EPOCH":88014,"BSTAR":0.00161,"MEAN_MOTION_DOT":4.09e-5,"MEAN_MOTION_DDOT":0},{"OBJECT_NAME":"IRIDIUM 33 DEB","OBJECT_ID":"1997-051AP","EPOCH":"2026-03-07T07:49:59.920608","MEAN_MOTION":14.46386387,"ECCENTRICITY":0.0018156,"INCLINATION":86.3779,"RA_OF_ASC_NODE":21.976,"ARG_OF_PERICENTER":262.5439,"MEAN_ANOMALY":219.2943,"EPHEMERIS_TYPE":0,"CLASSIFICATION_TYPE":"U","NORAD_CAT_ID":33870,"ELEMENT_SET_NO":999,"REV_AT_EPOCH":89359,"BSTAR":0.0011805,"MEAN_MOTION_DOT":4.265e-5,"MEAN_MOTION_DDOT":0},{"OBJECT_NAME":"IRIDIUM 33 DEB","OBJECT_ID":"1997-051BA","EPOCH":"2026-03-07T12:08:18.414816","MEAN_MOTION":14.58961185,"ECCENTRICITY":0.00524301,"INCLINATION":86.3825,"RA_OF_ASC_NODE":69.8171,"ARG_OF_PERICENTER":249.6063,"MEAN_ANOMALY":233.447,"EPHEMERIS_TYPE":0,"CLASSIFICATION_TYPE":"U","NORAD_CAT_ID":33881,"ELEMENT_SET_NO":999,"REV_AT_EPOCH":88735,"BSTAR":0.0050639584,"MEAN_MOTION_DOT":0.00024288,"MEAN_MOTION_DDOT":0},{"OBJECT_NAME":"IRIDIUM 33 DEB","OBJECT_ID":"1997-051BD","EPOCH":"2026-03-07T04:33:07.932096","MEAN_MOTION":14.80189917,"ECCENTRICITY":0.00135519,"INCLINATION":86.3714,"RA_OF_ASC_NODE":331.6369,"ARG_OF_PERICENTER":25.745,"MEAN_ANOMALY":97.0143,"EPHEMERIS_TYPE":0,"CLASSIFICATION_TYPE":"U","NORAD_CAT_ID":33884,"ELEMENT_SET_NO":999,"REV_AT_EPOCH":90095,"BSTAR":0.0022887492,"MEAN_MOTION_DOT":0.00017463,"MEAN_MOTION_DDOT":0},{"OBJECT_NAME":"IRIDIUM 33 DEB","OBJECT_ID":"1997-051BF","EPOCH":"2026-03-07T15:02:44.980800","MEAN_MOTION":14.36166037,"ECCENTRICITY":0.00132016,"INCLINATION":86.3843,"RA_OF_ASC_NODE":31.4734,"ARG_OF_PERICENTER":337.7001,"MEAN_ANOMALY":197.1594,"EPHEMERIS_TYPE":0,"CLASSIFICATION_TYPE":"U","NORAD_CAT_ID":33886,"ELEMENT_SET_NO":999,"REV_AT_EPOCH":89270,"BSTAR":0.00030330524,"MEAN_MOTION_DOT":9.04e-6,"MEAN_MOTION_DDOT":0},{"OBJECT_NAME":"IRIDIUM 33 DEB","OBJECT_ID":"1997-051BG","EPOCH":"2026-03-07T11:46:24.129984","MEAN_MOTION":14.37322255,"ECCENTRICITY":0.00053707,"INCLINATION":86.3078,"RA_OF_ASC_NODE":326.8936,"ARG_OF_PERICENTER":343.7835,"MEAN_ANOMALY":137.6795,"EPHEMERIS_TYPE":0,"CLASSIFICATION_TYPE":"U","NORAD_CAT_ID":33887,"ELEMENT_SET_NO":999,"REV_AT_EPOCH":89382,"BSTAR":0.00019840272,"MEAN_MOTION_DOT":6.11e-6,"MEAN_MOTION_DDOT":0},{"OBJECT_NAME":"IRIDIUM 33 DEB","OBJECT_ID":"1997-051BN","EPOCH":"2026-03-07T07:58:47.709696","MEAN_MOTION":14.56366985,"ECCENTRICITY":0.0015881,"INCLINATION":86.3887,"RA_OF_ASC_NODE":17.0282,"ARG_OF_PERICENTER":164.4385,"MEAN_ANOMALY":318.8859,"EPHEMERIS_TYPE":0,"CLASSIFICATION_TYPE":"U","NORAD_CAT_ID":33953,"ELEMENT_SET_NO":999,"REV_AT_EPOCH":89534,"BSTAR":0.0017687,"MEAN_MOTION_DOT":7.877e-5,"MEAN_MOTION_DDOT":0}]
